[Satellite]
VERSION=1.1
NAME=SL-14 R/B
NICKNAME=SL-14 R/B
TLE1=1 15945U 85069B   19317.34748424  .00000084  00000-0  71905-5 0  9998
TLE2=2 15945  82.5307  29.6290 0018191 259.6613 100.2552 14.84019167851416
STATUS=0
